0 COSMOS 2251 DEB
1 37086U 93036BFG 23282.48635372  .00034396  00000-0  45064-2 0  9996
2 37086  73.9969 304.4746 0043935 278.0040  81.6151 14.79514060713316
0 COSMOS 2251 DEB
1 37087U 93036BFH 23282.62220151  .00058036  00000-0  65794-2 0  9997
2 37087  74.0092 248.0003 0127151 190.4614 169.3915 14.80332427733032
0 COSMOS 2251 DEB
1 37088U 93036BFJ 23281.42971011  .00058836  00000-0  64329-2 0  9994
2 37088  74.0099 278.2696 0021157 260.6260  99.2528 14.87361872716573
0 COSMOS 2251 DEB
1 37089U 93036BFK 23281.13027267  .00011009  00000-0  34401-2 0  9997
2 37089  74.0453 182.2470 0186126 119.8014 242.1790 14.31326925721274
0 COSMOS 2251 DEB
1 37093U 93036BFP 23281.29002705  .00029640  00000-0  36314-2 0  9994
2 37093  74.0204 292.1946 0128038  17.9761 342.5878 14.77319303594651
0 COSMOS 2251 DEB
1 37094U 93036BFQ 23282.27881637  .00003732  00000-0  13664-2 0  9990
2 37094  74.1130 131.0719 0094061 307.8594  51.4072 14.30769170731018
0 COSMOS 2251 DEB
1 37095U 93036BFR 23279.34887393  .00004734  00000-0  28399-2 0  9994
2 37095  73.8497 148.8240 0210167 353.3119   6.5213 13.96817980514619
0 COSMOS 2251 DEB
1 37101U 93036BFX 23281.04302490  .00007534  00000-0  18743-2 0  9995
2 37101  74.0411 168.8998 0056754  96.3334 264.4295 14.50900964540622
0 COSMOS 2251 DEB
1 37105U 93036BGB 23277.76978688  .00012608  00000-0  52738-2 0  9991
2 37105  73.8854 305.4227 0353502  48.8251 314.2803 13.97406504725646
0 COSMOS 2251 DEB
1 37108U 93036BGE 23281.79078674  .00004763  00000-0  16926-2 0  9990
2 37108  74.0471 101.9926 0109910  14.5679 345.8594 14.31297976740798
0 COSMOS 2251 DEB
1 37110U 93036BGG 23282.38303140  .00132544  00000-0  68056-2 0  9998
2 37110  73.7922 316.9800 0026994 247.1077 112.7266 15.15533749627585
0 COSMOS 2251 DEB
1 37120U 93036BGS 23276.43745238  .00017745  00000-0  42377-2 0  9999
2 37120  74.0209 296.7015 0039006 194.6159 165.3879 14.53167663544105
0 COSMOS 2251 DEB
1 37125U 93036BGX 23267.51052244  .00186652  00000-0  67996-2 0  9999
2 37125  73.9928 207.3662 0024700 203.5297 156.4777 15.27056114371106
0 COSMOS 2251 DEB
1 37126U 93036BGY 23279.22115631  .00003522  00000-0  54011-3 0  9990
2 37126  73.9519 113.0027 0132131 178.4119 181.7499 14.68271153549736
0 COSMOS 2251 DEB
1 37127U 93036BGZ 23282.48384422  .00038906  00000-0  73509-2 0  9995
2 37127  74.0021 206.8659 0025331 100.7999 259.6022 14.64005617530852
0 COSMOS 2251 DEB
1 37131U 93036BHD 23282.57625238  .00083457  00000-0  91554-2 0  9994
2 37131  74.0166  35.0507 0012749 320.4602  39.5647 14.87176290744847
0 COSMOS 2251 DEB
1 37132U 93036BHE 23282.43445810  .00007661  00000-0  15077-2 0  9995
2 37132  74.0113 337.8612 0055133 331.9616  27.8582 14.61755197507336
0 IRIDIUM 33 DEB
1 37136U 97051XG  23258.97239345  .00001856  00000-0  79042-3 0  9999
2 37136  86.1779 335.6329 0085395  94.2042 266.8912 14.22694894528369
0 COSMOS 2466 (GLONASS)
1 37137U 10041A   23281.73046227 -.00000017  00000-0  00000-0 0  9993
2 37137  63.9104 223.8213 0017317 173.6950  13.9593  2.13112682101904
0 COSMOS 2465 (GLONASS)
1 37138U 10041B   23279.83781848  .00000002  00000-0  00000-0 0  9990
2 37138  63.9266 224.0242 0039612 177.9295  45.1776  2.13098205101881
0 COSMOS 2464 (GLONASS)
1 37139U 10041C   23282.32549486 -.00000021  00000-0  00000-0 0  9991
2 37139  63.9331 223.9563 0031318   9.9520 171.4848  2.13099763101961
0 SL-12 R/B(2)
1 37140U 10041D   23282.51078532 -.00000022  00000-0  00000-0 0  9994
2 37140  63.9292 223.2994 0037729 191.4295 349.1142  2.13454217102093
0 SL-12 R/B(AUX MOTOR)
1 37143U 10041G   23282.47138004  .00174460  00000-0  99239-2 0  9994
2 37143  64.4489  30.8818 4618506 349.7696   3.3592  6.34508978205635
0 SL-12 R/B(AUX MOTOR)
1 37144U 10041H   23282.42079532  .00000404  00000-0  48817-3 0  9993
2 37144  64.5649  90.1151 5763808 346.6810   2.9361  4.24449091202931
0 THORAD DELTA 1 DEB
1 37148U 74089FH  23282.64444560  .00027048  00000-0  21400-1 0  9990
2 37148 101.7160 164.1685 0065862  22.0245  33.5216 13.90331387658135
0 CHINASAT 6A
1 37150U 10042A   23282.50665826 -.00000097  00000-0  00000-0 0  9995
2 37150   1.6735  89.5803 0001378 110.6424 269.2260  0.99695461 48097
0 COSMOS 2467
1 37152U 10043A   23282.65397653  .00000028  00000-0  12931-3 0  9996
2 37152  82.4561 318.9951 0002664 113.4791   9.3565 12.42932581593615
0 STRELA 3
1 37153U 10043B   23282.59285277  .00000025  00000-0  11127-3 0  9991
2 37153  82.4590 329.8633 0008462  61.7151 298.4780 12.40758931592637
0 COSMOS 2468
1 37154U 10043C   23282.60894428  .00000042  00000-0  23122-3 0  9995
2 37154  82.4596 316.8132 0012874 290.5629 189.2964 12.43696138593857
0 SL-19 R/B
1 37155U 10043D   23282.60436505  .00000032  00000-0  93476-4 0  9993
2 37155  82.4556 113.0274 0197846 295.9513 126.9229 12.78552967610718
0 QZS-1 (MICHIBIKI)
1 37158U 10045A   23282.05257692  .00000027  00000-0  00000-0 0  9996
2 37158  42.9157 127.2759 0003698 101.2710 260.3085  0.87715749 47783
0 H-2A R/B
1 37159U 10045B   23282.57273958  .00444336 -46309-6  11346-2 0  9998
2 37159  31.8843 346.1717 3883361 254.3128  60.4262  7.85816128200413
0 YAOGAN 11
1 37165U 10047A   23282.79129307  .00002407  00000-0  33700-3 0  9998
2 37165  98.4171  84.8705 0038183 142.3490 218.0404 14.78075929702901
0 ZHEDA PIXING 1B
1 37166U 10047B   23282.89762470  .00004490  00000-0  54754-3 0  9990
2 37166  97.8205 250.7214 0020736 266.1174  93.7669 14.83698666704864
0 ZHEDA PIXING 1C
1 37167U 10047C   23282.89081304  .00004558  00000-0  55788-3 0  9994
2 37167  97.8530 250.5435 0020350 269.3037  90.5845 14.83546211704818
0 SBSS (USA 216)
1 37168U 10048A   23282.72840647  .00001839  00000-0  23402-3 0  9998
2 37168  97.8852 138.8970 0001222  53.3347 352.0334 14.82783755704757
0 MINOTAUR 4 R/B
1 37169U 10048B   23282.65297549  .00031882  00000-0  65757-3 0  9998
2 37169  97.9781 141.2086 0003300 356.7602   3.3623 15.45826654725081
0 SL-6 R/B(2)
1 37171U 10049B   23281.31284111  .00000891  00000-0  10106-2 0  9998
2 37171  63.3332 334.5214 7389030 245.9573  24.4302  2.04372607 96964
0 SHIJIAN 6 04A (SJ-6 04A)
1 37179U 10051A   23282.87067879  .00011384  00000-0  92647-3 0  9991
2 37179  97.8083 269.4915 0025439 339.0982  20.9198 14.99448868709070
0 SHIJIAN 6 04B (SJ-6 04B)
1 37180U 10051B   23282.86926083  .00002287  00000-0  21367-3 0  9996
2 37180  97.8175 267.5299 0011485 356.3108   3.8026 14.95113485708840
0 CZ-4B R/B
1 37181U 10051C   23282.59159594  .00007677  00000-0  50706-3 0  9999
2 37181  97.8653 286.9334 0094671 223.0183 251.8241 15.04049287710361
0 XM-5
1 37185U 10053A   23282.64511127 -.00000028  00000-0  00000+0 0  9997
2 37185   0.0176 234.0112 0000199 296.7734 324.2901  1.00269344 47607
0 BREEZE-M R/B
1 37186U 10053B   23282.60999141  .00000017  00000-0  00000-0 0  9998
2 37186  21.8674 124.6558 6053067 168.2263 164.3174  2.17042550102938
0 BREEZE-M DEB (TANK)
1 37187U 10053C   23282.15290148  .00003985  00000-0  88549-3 0  9994
2 37187  49.5099 222.5515 5160873 255.4173  44.2136  5.33312459248912
0 GLOBALSTAR M079
1 37188U 10054A   23282.79911209 -.00000097  00000-0  35061-4 0  9998
2 37188  52.0031 216.1708 0000778  56.4161 321.1094 12.62268567599299
0 GLOBALSTAR M074
1 37189U 10054B   23282.54262660 -.00000101  00000-0  15123-4 0  9995
2 37189  52.0007 216.3694 0000638  70.1546 101.5960 12.62270412599254
0 GLOBALSTAR M076
1 37190U 10054C   23282.24745868 -.00000091  00000-0  72381-4 0  9997
2 37190  52.0022 217.3829 0001176  75.0152  74.8427 12.62261932598862
0 GLOBALSTAR M077
1 37191U 10054D   23282.47704781 -.00000067  00000-0  20753-3 0  9990
2 37191  52.0061 173.3652 0000760  79.6387  92.7225 12.62267311599266
0 GLOBALSTAR M075
1 37192U 10054E   23282.66132904 -.00000092  00000-0  67886-4 0  9991
2 37192  51.9934 258.7244 0000610  52.4633 118.3172 12.62262018598518
0 GLOBALSTAR M073
1 37193U 10054F   23282.42351937 -.00000093  00000-0  62344-4 0  9990
2 37193  52.0045 172.7967 0000843  73.4983  96.5603 12.62268201599944
0 BREEZE-M DEB
1 37198U 08011C   23282.75842336  .00002011  00000-0  37068-2 0  9993
2 37198  48.7981 191.1697 6566269  61.7032 348.6251  3.11713742147606
0 BREEZE-M DEB
1 37199U 08011D   23277.81246442  .00000912  00000-0  51809-1 0  9997
2 37199  49.1699   6.9540 6333818 268.6852  67.3858  3.06703340145274
0 BREEZE-M DEB
1 37200U 08011E   23280.70701255 -.00000007  00000-0  00000-0 0  9992
2 37200  48.6939 136.5891 6192579 169.5209 206.6290  3.02128270143230
0 BREEZE-M DEB
1 37201U 08011F   23279.38532598 -.00000236  00000-0 -12250-1 0  9993
2 37201  49.1292  22.0018 6312197 257.6716  73.4529  3.06045015145068
0 BREEZE-M DEB
1 37202U 08011G   23280.46827702  .00000089  00000-0  57478-2 0  9995
2 37202  49.1930 346.9199 6348922 284.9759  16.6329  3.07171304128252
0 BREEZE-M DEB
1 37205U 08011K   23260.60956104 -.00000055  00000-0  00000-0 0  9992
2 37205  49.1823  29.5159 6322007 248.8092  47.0727  3.05897593 22156
0 EUTE W3B
1 37206U 10056A   23282.54952002  .00006376  00000-0  16868-2 0  9997
2 37206   2.0662 194.7082 7009832 137.2645 305.5589  2.62727085115522
0 BSAT-3B
1 37207U 10056B   23282.83319062 -.00000355  00000-0  00000+0 0  9993
2 37207   0.0469  11.0987 0003108 256.8383 160.0684  1.00271624 47439
0 ARIANE 5 R/B
1 37208U 10056C   23282.48370596  .00010377  00000-0  14729-2 0  9994
2 37208   2.4065 120.6994 6970080 276.5155  15.0859  2.69584784118282
0 BEIDOU 6
1 37210U 10057A   23282.72202196 -.00000115  00000-0  00000+0 0  9999
2 37210   1.2548  62.4014 0007225 163.7333 211.8848  1.00273018 47447
0 MERIDIAN 3
1 37212U 10058A   23281.79380671  .00000220  00000-0  00000-0 0  9990
2 37212  63.4790 185.3756 6407037 266.7054  23.5807  2.00571498 94754
0 SL-26 R/B
1 37213U 10058B   23281.85624358  .00001231  00000-0  00000-0 0  9994
2 37213  63.6548 171.1380 6525384 265.9097  22.8694  2.00326909 94726
